STARLINK-31397          
1 59540U 24074G   26068.18224681  .00011242  00000+0  41827-3 0  9998
2 59540  43.0017 346.6585 0001248  41.9916 318.1032 15.27512537105936
KUIPER-00266            
1 67789U 26030AB  26067.91293632  .00029701  00000+0  98220-3 0  9996
2 67789  51.8807 223.5904 0022313  72.5291 287.8129 15.30874235  4964
